[{"OBJECT_NAME":"ISS (UNITY)","OBJECT_ID":"1998-069F","EPOCH":"2026-03-09T16:57:57.785184","MEAN_MOTION":15.485472,"ECCENTRICITY":0.00080196,"INCLINATION":51.6323,"RA_OF_ASC_NODE":72.271,"ARG_OF_PERICENTER":174.6781,"MEAN_ANOMALY":185.4294,"EPHEMERIS_TYPE":0,"CLASSIFICATION_TYPE":"U","NORAD_CAT_ID":25575,"ELEMENT_SET_NO":999,"REV_AT_EPOCH":55441,"BSTAR":0.0001550955,"MEAN_MOTION_DOT":7.976e-5,"MEAN_MOTION_DDOT":0},{"OBJECT_NAME":"HAWK-5A","OBJECT_ID":"2022-057AB","EPOCH":"2026-03-09T22:01:40.756512","MEAN_MOTION":15.47548342,"ECCENTRICITY":0.00059632,"INCLINATION":97.6458,"RA_OF_ASC_NODE":221.7352,"ARG_OF_PERICENTER":72.39,"MEAN_ANOMALY":287.8,"EPHEMERIS_TYPE":0,"CLASSIFICATION_TYPE":"U","NORAD_CAT_ID":52757,"ELEMENT_SET_NO":999,"REV_AT_EPOCH":21097,"BSTAR":0.00046469893,"MEAN_MOTION_DOT":0.00023866,"MEAN_MOTION_DDOT":0}]
